{
  "norad_id": 52792,
  "name": "GEESAT-1 08",
  "history": [
    {
      "epoch": "2026-03-28T20:00:30.472992",
      "apogee_km": 639.7948632423795,
      "perigee_km": 611.8134179915014,
      "latitude_deg": 46.216782345536345,
      "longitude_deg": -100.76614112011157,
      "semi_major_axis_km": 7003.94114061694,
      "eccentricity": 0.00199755,
      "inclination_deg": 49.9923,
      "raan_deg": 212.5687,
      "arg_perigee_deg": 342.0055,
      "mean_anomaly_deg": 18.0173,
      "mean_motion_rev_day": 14.81115853
    },
    {
      "epoch": "2026-03-29T04:06:16.801920",
      "apogee_km": 639.7835130867616,
      "perigee_km": 611.8014140938258,
      "latitude_deg": 44.001516462995085,
      "longitude_deg": -68.38133120001294,
      "semi_major_axis_km": 7003.929463590293,
      "eccentricity": 0.0019976,
      "inclination_deg": 49.9923,
      "raan_deg": 211.0113,
      "arg_perigee_deg": 343.2849,
      "mean_anomaly_deg": 16.7427,
      "mean_motion_rev_day": 14.81119557
    }
  ]
}